KUIPER-00564            
1 69625U 26140AK  26190.25002315  .00040795  00000+0  11055-2 0  9995
2 69625  51.8815 291.9227 0009277 275.2222 287.3179 15.37210906  3876
KUIPER-00567            
1 69626U 26140AL  26190.27338470  .00030838  00000+0  80828-3 0  9994
2 69626  51.8795 291.7487 0012272 247.0556 112.9137 15.38343791  4638
KUIPER-00573            
1 69627U 26140AM  26190.28598093  .00033475  00000+0  90495-3 0  9996
2 69627  51.8844 291.8348 0009827 266.0873  93.8991 15.37373970  4632
CENTISPACE-1 GROUP 05 O*
1 69636U 26138J   26189.74505227 -.00000376  00000+0 -11236-3 0  9991
2 69636  55.1384 201.5170 0009154 330.3338  29.7117 14.15844042  3043
VICTUS HAZE PUMA        
1 69646U 26142A   26190.32367549  .00002781  00000+0  12827-3 0  9993
2 69646  97.4474  87.6951 0025140 287.7724  72.0768 15.20821230  3033
HOKUSHIN-1              
1 69648U 98067YH  26190.04264495  .00016252  00000+0  28392-3 0  9997
2 69648  51.6309 191.7619 0006089 307.2335  52.8098 15.50799084  3046
STARLINK-37656          
1 69649U 26143A   26190.25002315 -.00016947  00000+0 -31049-3 0  9994
2 69649  97.2856 234.0773 0000897  86.7766 139.8782 15.49200548  4003
STARLINK-37646          
1 69650U 26143B   26190.25002315 -.01837061  00000+0 -22904-1 0  9993
2 69650  97.2845 234.2271 0001751  76.0394 133.2427 15.62898870  4007
STARLINK-37749          
1 69651U 26143C   26190.25002315 -.02503654  00000+0 -35706-1 0  9997
2 69651  97.2848 234.2227 0001983  69.9177 131.3208 15.59952126  4006
STARLINK-37819          
1 69652U 26143D   26190.25002315 -.00829180  00000+0 -12374-1 0  9997
2 69652  97.2849 234.1941 0001146  63.6124  77.7539 15.57379917  4003
STARLINK-37729          
1 69653U 26143E   26190.05860734  .00295257  00000+0  13893-2 0  9991
2 69653  97.2838 234.0894 0001152 187.5673 172.5579 15.82348664  3943
STARLINK-37838          
1 69654U 26143F   26190.25002315 -.02631227  00000+0 -30243-1 0  9999
2 69654  97.2845 234.2406 0001567  84.8417 168.9393 15.65640084  4001
STARLINK-37884          
1 69655U 26143G   26190.25002315 -.02393750  00000+0 -44158-1 0  9996
2 69655  97.2855 234.1902 0002128  73.5293  50.1861 15.52882820  4008
STARLINK-37876          
1 69656U 26143H   26190.25002315 -.02537963  00000+0 -30901-1 0  9994
2 69656  97.2850 234.2506 0001810  82.1456 184.0591 15.64056455  3904
STARLINK-37784          
1 69657U 26143J   26190.25002315 -.02427822  00000+0 -38920-1 0  9996
2 69657  97.2857 234.2014 0001896  59.6546  91.3415 15.56747896  3901
STARLINK-37851          
1 69658U 26143K   26190.25002315 -.02526105  00000+0 -33101-1 0  9997
2 69658  97.2851 234.2517 0001807  96.2952 174.3536 15.62174318  3898
STARLINK-37229          
1 69659U 26143L   26190.25002315 -.02562709  00000+0 -37777-1 0  9991
2 69659  97.2850 234.2158 0001757  68.2657 116.9719 15.59186994  3944
STARLINK-37556          
1 69660U 26143M   26190.25002315 -.02623280  00000+0 -33894-1 0  9991
2 69660  97.2846 234.2274 0001804  87.0707 135.3276 15.62685232  3944
STARLINK-37867          
1 69661U 26143N   26190.25002315 -.02528438  00000+0 -33232-1 0  9997
2 69661  97.2854 234.2523 0001879  84.2469 185.4836 15.62099919  3902
STARLINK-37852          
1 69662U 26143P   26190.25002315 -.00863717  00000+0 -13777-1 0  9990
2 69662  97.2851 234.1859 0001240  76.2341  48.5340 15.55687726  3903
STARLINK-37554          
1 69663U 26143Q   26190.25002315 -.02478578  00000+0 -34845-1 0  9999
2 69663  97.2852 234.2329 0002052  81.0335 145.6258 15.60284732  3944
STARLINK-37830          
1 69664U 26143R   26190.25002315 -.02507750  00000+0 -40499-1 0  9997
2 69664  97.2853 234.2064 0002128  65.0884 103.1869 15.56679010  3902
STARLINK-37837          
1 69665U 26143S   26190.25002315 -.02626121  00000+0 -33437-1 0  9996
2 69665  97.2848 234.2424 0001716  96.7594 162.2582 15.63062460  3910
STARLINK-37943          
1 69666U 26143T   26190.25002315 -.02549112  00000+0 -39050-1 0  9998
2 69666  97.2850 234.2071 0001950  68.5410  95.7832 15.58151289  3916
STARLINK-37941          
1 69667U 26143U   26190.25002315 -.02388089  00000+0 -33935-1 0  9999
2 69667  97.2847 234.2309 0001973  85.0382 137.6547 15.59865724  3910
