OBJECT_NAME,OBJECT_ID,EPOCH,MEAN_MOTION,ECCENTRICITY,INCLINATION,RA_OF_ASC_NODE,ARG_OF_PERICENTER,MEAN_ANOMALY,EPHEMERIS_TYPE,CLASSIFICATION_TYPE,NORAD_CAT_ID,ELEMENT_SET_NO,REV_AT_EPOCH,BSTAR,MEAN_MOTION_DOT,MEAN_MOTION_DDOT
KUIPER-00564,2026-140AK,2026-07-09T06:00:02.000160,15.37210906,.00092778,51.8815,291.9227,275.2222,287.3179,0,U,69625,999,387,.11054636E-2,.40795E-3,0
KUIPER-00567,2026-140AL,2026-07-09T06:33:40.438080,15.38343791,.00122729,51.8795,291.7487,247.0556,112.9137,0,U,69626,999,463,.80827902E-3,.30838E-3,0
KUIPER-00573,2026-140AM,2026-07-09T06:51:48.752352,15.37373970,.00098273,51.8844,291.8348,266.0873,93.8991,0,U,69627,999,463,.9049507E-3,.33475E-3,0
CENTISPACE-1 GROUP 05 OBJECT J,2026-138J,2026-07-08T17:52:52.516128,14.15844042,.0009154,55.1384,201.5170,330.3338,29.7117,0,U,69636,999,304,-.11235651E-3,-.376E-5,0
VICTUS HAZE PUMA,2026-142A,2026-07-09T07:46:05.562336,15.20821230,.00251401,97.4474,87.6951,287.7724,72.0768,0,U,69646,999,303,.12826554E-3,.2781E-4,0
HOKUSHIN-1,1998-067YH,2026-07-09T01:01:24.523680,15.50799084,.00060895,51.6309,191.7619,307.2335,52.8098,0,U,69648,999,304,.28392388E-3,.16252E-3,0
STARLINK-37656,2026-143A,2026-07-09T06:00:02.000160,15.49200548,.00008973,97.2856,234.0773,86.7766,139.8782,0,U,69649,999,400,-.31048598E-3,-.16947E-3,0
STARLINK-37646,2026-143B,2026-07-09T06:00:02.000160,15.62898870,.00017518,97.2845,234.2271,76.0394,133.2427,0,U,69650,999,400,-.22904203E-1,-.1837061E-1,0
STARLINK-37749,2026-143C,2026-07-09T06:00:02.000160,15.59952126,.00019836,97.2848,234.2227,69.9177,131.3208,0,U,69651,999,400,-.35706487E-1,-.2503654E-1,0
STARLINK-37819,2026-143D,2026-07-09T06:00:02.000160,15.57379917,.00011464,97.2849,234.1941,63.6124,77.7539,0,U,69652,999,400,-.12373788E-1,-.82918E-2,0
STARLINK-37729,2026-143E,2026-07-09T01:24:23.674176,15.82348664,.00011522,97.2838,234.0894,187.5673,172.5579,0,U,69653,999,394,.13893392E-2,.295257E-2,0
STARLINK-37838,2026-143F,2026-07-09T06:00:02.000160,15.65640084,.00015678,97.2845,234.2406,84.8417,168.9393,0,U,69654,999,400,-.30243458E-1,-.2631227E-1,0
STARLINK-37884,2026-143G,2026-07-09T06:00:02.000160,15.52882820,.00021286,97.2855,234.1902,73.5293,50.1861,0,U,69655,999,400,-.44157797E-1,-.239375E-1,0
STARLINK-37876,2026-143H,2026-07-09T06:00:02.000160,15.64056455,.00018105,97.2850,234.2506,82.1456,184.0591,0,U,69656,999,390,-.30900554E-1,-.2537963E-1,0
STARLINK-37784,2026-143J,2026-07-09T06:00:02.000160,15.56747896,.00018967,97.2857,234.2014,59.6546,91.3415,0,U,69657,999,390,-.38920178E-1,-.2427822E-1,0
STARLINK-37851,2026-143K,2026-07-09T06:00:02.000160,15.62174318,.00018074,97.2851,234.2517,96.2952,174.3536,0,U,69658,999,389,-.33101235E-1,-.2526105E-1,0
STARLINK-37229,2026-143L,2026-07-09T06:00:02.000160,15.59186994,.00017574,97.2850,234.2158,68.2657,116.9719,0,U,69659,999,394,-.37776559E-1,-.2562709E-1,0
STARLINK-37556,2026-143M,2026-07-09T06:00:02.000160,15.62685232,.00018045,97.2846,234.2274,87.0707,135.3276,0,U,69660,999,394,-.33893564E-1,-.262328E-1,0
STARLINK-37867,2026-143N,2026-07-09T06:00:02.000160,15.62099919,.00018791,97.2854,234.2523,84.2469,185.4836,0,U,69661,999,390,-.33231857E-1,-.2528438E-1,0
STARLINK-37852,2026-143P,2026-07-09T06:00:02.000160,15.55687726,.00012403,97.2851,234.1859,76.2341,48.5340,0,U,69662,999,390,-.1377695E-1,-.863717E-2,0
STARLINK-37554,2026-143Q,2026-07-09T06:00:02.000160,15.60284732,.00020526,97.2852,234.2329,81.0335,145.6258,0,U,69663,999,394,-.34845313E-1,-.2478578E-1,0
STARLINK-37830,2026-143R,2026-07-09T06:00:02.000160,15.56679010,.00021285,97.2853,234.2064,65.0884,103.1869,0,U,69664,999,390,-.40499006E-1,-.250775E-1,0
STARLINK-37837,2026-143S,2026-07-09T06:00:02.000160,15.63062460,.00017161,97.2848,234.2424,96.7594,162.2582,0,U,69665,999,391,-.33437471E-1,-.2626121E-1,0
STARLINK-37943,2026-143T,2026-07-09T06:00:02.000160,15.58151289,.000195,97.2850,234.2071,68.5410,95.7832,0,U,69666,999,391,-.39049614E-1,-.2549112E-1,0
STARLINK-37941,2026-143U,2026-07-09T06:00:02.000160,15.59865724,.00019737,97.2847,234.2309,85.0382,137.6547,0,U,69667,999,391,-.33934673E-1,-.2388089E-1,0
